FLOCK 4G-25             
1 62646U 25009AP  26068.74572546  .00010373  00000+0  38902-3 0  9990
2 62646  97.4049 151.4141 0000828 316.3151  43.8023 15.27424196 63734
STARLINK-35426          
1 66441U 25259V   26067.97791761  .00029387  00000+0  10721-2 0  9993
2 66441  43.0030 278.2576 0002272 278.3776  81.6818 15.27611480 19381
